{
  "type": "FeatureCollection",
  "features": [
    {
      "type": "Feature",
      "properties": {
        "norad_id": 28890,
        "name": "BEIJING 1",
        "group": "dmc",
        "lat": 1.706788273098636,
        "lon": 114.57583145825407,
        "alt_km": 693.0679489602026,
        "timestamp": "2025-12-13T07:35:41.206996+00:00",
        "meta_object_name": "BEIJING 1",
        "meta_object_id": "2005-043A",
        "meta_epoch": "2025-12-12T23:22:54.304896",
        "meta_mean_motion": 14.6336707,
        "meta_eccentricity": 0.0015329,
        "meta_inclination": 98.2652,
        "meta_ra_of_asc_node": 114.4811,
        "meta_arg_of_pericenter": 140.5017,
        "meta_mean_anomaly": 219.7305,
        "meta_ephemeris_type": 0,
        "meta_classification_type": "U",
        "meta_norad_cat_id": 28890,
        "meta_element_set_no": 999,
        "meta_rev_at_epoch": 7341,
        "meta_bstar": 0.00015970812,
        "meta_mean_motion_dot": 7.78e-06,
        "meta_mean_motion_ddot": 0,
        "tle_line1": "1 28890U 05043A   25346.97423964  .00000778  00000+0  15971-3 0  9990",
        "tle_line2": "2 28890  98.2652 114.4811 0015329 140.5017 219.7305 14.63367070 73418"
      },
      "geometry": {
        "type": "Point",
        "coordinates": [
          114.57583145825407,
          1.706788273098636
        ]
      }
    },
    {
      "type": "Feature",
      "properties": {
        "norad_id": 33320,
        "name": "HUANJING 1A (HJ-1A)",
        "group": "dmc",
        "lat": 69.51559511775717,
        "lon": -45.508781611713886,
        "alt_km": 600.8773590759674,
        "timestamp": "2025-12-13T07:35:41.207018+00:00",
        "meta_object_name": "HUANJING 1A (HJ-1A)",
        "meta_object_id": "2008-041A",
        "meta_epoch": "2025-12-13T00:48:06.230880",
        "meta_mean_motion": 14.83396277,
        "meta_eccentricity": 0.0020083,
        "meta_inclination": 97.6543,
        "meta_ra_of_asc_node": 335.3197,
        "meta_arg_of_pericenter": 33.408,
        "meta_mean_anomaly": 326.8397,
        "meta_ephemeris_type": 0,
        "meta_classification_type": "U",
        "meta_norad_cat_id": 33320,
        "meta_element_set_no": 999,
        "meta_rev_at_epoch": 93080,
        "meta_bstar": 0.00029939229,
        "meta_mean_motion_dot": 2.414e-05,
        "meta_mean_motion_ddot": 0,
        "tle_line1": "1 33320U 08041A   25347.03340545  .00002414  00000+0  29939-3 0  9994",
        "tle_line2": "2 33320  97.6543 335.3197 0020083  33.4080 326.8397 14.83396277930807"
      },
      "geometry": {
        "type": "Point",
        "coordinates": [
          -45.508781611713886,
          69.51559511775717
        ]
      }
    },
    {
      "type": "Feature",
      "properties": {
        "norad_id": 33321,
        "name": "HUANJING 1B (HJ-1B)",
        "group": "dmc",
        "lat": -68.23690114935059,
        "lon": -1.0658240428568646,
        "alt_km": 649.0737673518615,
        "timestamp": "2025-12-13T07:35:41.207031+00:00",
        "meta_object_name": "HUANJING 1B (HJ-1B)",
        "meta_object_id": "2008-041B",
        "meta_epoch": "2025-12-12T23:48:40.069152",
        "meta_mean_motion": 14.82822548,
        "meta_eccentricity": 0.00381205,
        "meta_inclination": 97.6403,
        "meta_ra_of_asc_node": 338.9763,
        "meta_arg_of_pericenter": 74.9069,
        "meta_mean_anomaly": 285.6358,
        "meta_ephemeris_type": 0,
        "meta_classification_type": "U",
        "meta_norad_cat_id": 33321,
        "meta_element_set_no": 999,
        "meta_rev_at_epoch": 93081,
        "meta_bstar": 0.00027563316,
        "meta_mean_motion_dot": 2.207e-05,
        "meta_mean_motion_ddot": 0,
        "tle_line1": "1 33321U 08041B   25346.99213043  .00002207  00000+0  27563-3 0  9992",
        "tle_line2": "2 33321  97.6403 338.9763 0038120  74.9069 285.6358 14.82822548930813"
      },
      "geometry": {
        "type": "Point",
        "coordinates": [
          -1.0658240428568646,
          -68.23690114935059
        ]
      }
    },
    {
      "type": "Feature",
      "properties": {
        "norad_id": 33446,
        "name": "YAOGAN-4",
        "group": "dmc",
        "lat": -21.85769084879442,
        "lon": 94.20966701619625,
        "alt_km": 630.8956773478731,
        "timestamp": "2025-12-13T07:35:41.207041+00:00",
        "meta_object_name": "YAOGAN-4",
        "meta_object_id": "2008-061A",
        "meta_epoch": "2025-12-12T19:20:52.548864",
        "meta_mean_motion": 14.8268323,
        "meta_eccentricity": 0.00135668,
        "meta_inclination": 97.918,
        "meta_ra_of_asc_node": 276.9049,
        "meta_arg_of_pericenter": 323.087,
        "meta_mean_anomaly": 36.9408,
        "meta_ephemeris_type": 0,
        "meta_classification_type": "U",
        "meta_norad_cat_id": 33446,
        "meta_element_set_no": 999,
        "meta_rev_at_epoch": 91804,
        "meta_bstar": 0.00030747624,
        "meta_mean_motion_dot": 2.43e-05,
        "meta_mean_motion_ddot": 0,
        "tle_line1": "1 33446U 08061A   25346.80616376  .00002430  00000+0  30748-3 0  9995",
        "tle_line2": "2 33446  97.9180 276.9049 0013566 323.0870  36.9408 14.82683230918046"
      },
      "geometry": {
        "type": "Point",
        "coordinates": [
          94.20966701619625,
          -21.85769084879442
        ]
      }
    },
    {
      "type": "Feature",
      "properties": {
        "norad_id": 35681,
        "name": "DEIMOS-1",
        "group": "dmc",
        "lat": -43.72976316089689,
        "lon": 155.3436126707347,
        "alt_km": 653.0008040108596,
        "timestamp": "2025-12-13T07:35:41.207051+00:00",
        "meta_object_name": "DEIMOS-1",
        "meta_object_id": "2009-041A",
        "meta_epoch": "2025-12-12T23:39:15.020064",
        "meta_mean_motion": 14.74953676,
        "meta_eccentricity": 0.00027176,
        "meta_inclination": 97.7149,
        "meta_ra_of_asc_node": 147.5772,
        "meta_arg_of_pericenter": 78.7966,
        "meta_mean_anomaly": 281.355,
        "meta_ephemeris_type": 0,
        "meta_classification_type": "U",
        "meta_norad_cat_id": 35681,
        "meta_element_set_no": 999,
        "meta_rev_at_epoch": 87943,
        "meta_bstar": 0.00018224792,
        "meta_mean_motion_dot": 1.177e-05,
        "meta_mean_motion_ddot": 0,
        "tle_line1": "1 35681U 09041A   25346.98559051  .00001177  00000+0  18225-3 0  9995",
        "tle_line2": "2 35681  97.7149 147.5772 0002717  78.7966 281.3550 14.74953676879432"
      },
      "geometry": {
        "type": "Point",
        "coordinates": [
          155.3436126707347,
          -43.72976316089689
        ]
      }
    },
    {
      "type": "Feature",
      "properties": {
        "norad_id": 35683,
        "name": "UK-DMC 2",
        "group": "dmc",
        "lat": -27.498222165793525,
        "lon": 126.3237143975352,
        "alt_km": 649.5149347146953,
        "timestamp": "2025-12-13T07:35:41.207061+00:00",
        "meta_object_name": "UK-DMC 2",
        "meta_object_id": "2009-041C",
        "meta_epoch": "2025-12-12T23:34:59.951712",
        "meta_mean_motion": 14.75622463,
        "meta_eccentricity": 0.00014452,
        "meta_inclination": 97.8559,
        "meta_ra_of_asc_node": 121.8781,
        "meta_arg_of_pericenter": 95.4025,
        "meta_mean_anomaly": 264.735,
        "meta_ephemeris_type": 0,
        "meta_classification_type": "U",
        "meta_norad_cat_id": 35683,
        "meta_element_set_no": 999,
        "meta_rev_at_epoch": 87910,
        "meta_bstar": 0.00022249372,
        "meta_mean_motion_dot": 1.469e-05,
        "meta_mean_motion_ddot": 0,
        "tle_line1": "1 35683U 09041C   25346.98263833  .00001469  00000+0  22249-3 0  9992",
        "tle_line2": "2 35683  97.8559 121.8781 0001445  95.4025 264.7350 14.75622463879109"
      },
      "geometry": {
        "type": "Point",
        "coordinates": [
          126.3237143975352,
          -27.498222165793525
        ]
      }
    },
    {
      "type": "Feature",
      "properties": {
        "norad_id": 40715,
        "name": "DMC3-FM1",
        "group": "dmc",
        "lat": 41.18035933729152,
        "lon": -152.28151738738285,
        "alt_km": 608.4962509118022,
        "timestamp": "2025-12-13T07:35:41.207072+00:00",
        "meta_object_name": "DMC3-FM1",
        "meta_object_id": "2015-032A",
        "meta_epoch": "2025-12-13T00:56:28.872384",
        "meta_mean_motion": 14.85441171,
        "meta_eccentricity": 0.00047,
        "meta_inclination": 97.6688,
        "meta_ra_of_asc_node": 214.221,
        "meta_arg_of_pericenter": 320.4648,
        "meta_mean_anomaly": 39.6225,
        "meta_ephemeris_type": 0,
        "meta_classification_type": "U",
        "meta_norad_cat_id": 40715,
        "meta_element_set_no": 999,
        "meta_rev_at_epoch": 56227,
        "meta_bstar": 0.00015960033,
        "meta_mean_motion_dot": 1.324e-05,
        "meta_mean_motion_ddot": 0,
        "tle_line1": "1 40715U 15032A   25347.03922306  .00001324  00000+0  15960-3 0  9997",
        "tle_line2": "2 40715  97.6688 214.2210 0004700 320.4648  39.6225 14.85441171562278"
      },
      "geometry": {
        "type": "Point",
        "coordinates": [
          -152.28151738738285,
          41.18035933729152
        ]
      }
    },
    {
      "type": "Feature",
      "properties": {
        "norad_id": 40716,
        "name": "DMC3-FM2",
        "group": "dmc",
        "lat": -76.30254249621301,
        "lon": -110.47653900722167,
        "alt_km": 616.8343144599958,
        "timestamp": "2025-12-13T07:35:41.207081+00:00",
        "meta_object_name": "DMC3-FM2",
        "meta_object_id": "2015-032B",
        "meta_epoch": "2025-12-12T23:51:52.504416",
        "meta_mean_motion": 14.85444175,
        "meta_eccentricity": 0.00052589,
        "meta_inclination": 97.6746,
        "meta_ra_of_asc_node": 215.6218,
        "meta_arg_of_pericenter": 325.4004,
        "meta_mean_anomaly": 34.6868,
        "meta_ephemeris_type": 0,
        "meta_classification_type": "U",
        "meta_norad_cat_id": 40716,
        "meta_element_set_no": 999,
        "meta_rev_at_epoch": 56226,
        "meta_bstar": 0.00023237137,
        "meta_mean_motion_dot": 1.952e-05,
        "meta_mean_motion_ddot": 0,
        "tle_line1": "1 40716U 15032B   25346.99435769  .00001952  00000+0  23237-3 0  9997",
        "tle_line2": "2 40716  97.6746 215.6218 0005258 325.4004  34.6868 14.85444175562261"
      },
      "geometry": {
        "type": "Point",
        "coordinates": [
          -110.47653900722167,
          -76.30254249621301
        ]
      }
    },
    {
      "type": "Feature",
      "properties": {
        "norad_id": 40717,
        "name": "DMC3-FM3",
        "group": "dmc",
        "lat": 13.901897704675415,
        "lon": 39.47975553695811,
        "alt_km": 616.3143058510514,
        "timestamp": "2025-12-13T07:35:41.207091+00:00",
        "meta_object_name": "DMC3-FM3",
        "meta_object_id": "2015-032C",
        "meta_epoch": "2025-12-12T22:46:00.795648",
        "meta_mean_motion": 14.85433791,
        "meta_eccentricity": 0.00045896,
        "meta_inclination": 97.6802,
        "meta_ra_of_asc_node": 217.2109,
        "meta_arg_of_pericenter": 328.2633,
        "meta_mean_anomaly": 31.8306,
        "meta_ephemeris_type": 0,
        "meta_classification_type": "U",
        "meta_norad_cat_id": 40717,
        "meta_element_set_no": 999,
        "meta_rev_at_epoch": 56226,
        "meta_bstar": 0.00020103169,
        "meta_mean_motion_dot": 1.681e-05,
        "meta_mean_motion_ddot": 0,
        "tle_line1": "1 40717U 15032C   25346.94862032  .00001681  00000+0  20103-3 0  9998",
        "tle_line2": "2 40717  97.6802 217.2109 0004589 328.2633  31.8306 14.85433791562265"
      },
      "geometry": {
        "type": "Point",
        "coordinates": [
          39.47975553695811,
          13.901897704675415
        ]
      }
    }
  ]
}